CCSDS_OMM_VERS = 2.0
CREATION_DATE  = 
ORIGINATOR     = 

OBJECT_NAME    = STARLINK-36905
OBJECT_ID      = 2026-050K
CENTER_NAME    = EARTH
REF_FRAME      = TEME
TIME_SYSTEM    = UTC
MEAN_ELEMENT_THEORY = SGP/SGP4

EPOCH          = 2026-04-01T16:39:27.430272
MEAN_MOTION    = 15.80992857
ECCENTRICITY   = .00016662
INCLINATION    = 53.1581
RA_OF_ASC_NODE = 166.4743
ARG_OF_PERICENTER = 45.6165
MEAN_ANOMALY   = 314.4994

EPHEMERIS_TYPE = 0
CLASSIFICATION_TYPE = U
NORAD_CAT_ID   = 68176
ELEMENT_SET_NO = 999
REV_AT_EPOCH   = 411
BSTAR          = .16237543E-2
MEAN_MOTION_DOT = .334338E-2
MEAN_MOTION_DDOT = 0

CCSDS_OMM_VERS = 2.0
CREATION_DATE  = 
ORIGINATOR     = 

OBJECT_NAME    = STARLINK-36668
OBJECT_ID      = 2026-050L
CENTER_NAME    = EARTH
REF_FRAME      = TEME
TIME_SYSTEM    = UTC
MEAN_ELEMENT_THEORY = SGP/SGP4

EPOCH          = 2026-04-01T16:38:22.395264
MEAN_MOTION    = 15.80958618
ECCENTRICITY   = .0001103
INCLINATION    = 53.1588
RA_OF_ASC_NODE = 166.4693
ARG_OF_PERICENTER = 90.4731
MEAN_ANOMALY   = 269.6419

EPHEMERIS_TYPE = 0
CLASSIFICATION_TYPE = U
NORAD_CAT_ID   = 68177
ELEMENT_SET_NO = 999
REV_AT_EPOCH   = 411
BSTAR          = .98143657E-3
MEAN_MOTION_DOT = .198298E-2
MEAN_MOTION_DDOT = 0

CCSDS_OMM_VERS = 2.0
CREATION_DATE  = 
ORIGINATOR     = 

OBJECT_NAME    = STARLINK-36677
OBJECT_ID      = 2026-050M
CENTER_NAME    = EARTH
REF_FRAME      = TEME
TIME_SYSTEM    = UTC
MEAN_ELEMENT_THEORY = SGP/SGP4

EPOCH          = 2026-04-01T16:37:17.609088
MEAN_MOTION    = 15.80958698
ECCENTRICITY   = .00012878
INCLINATION    = 53.1590
RA_OF_ASC_NODE = 166.4638
ARG_OF_PERICENTER = 120.4225
MEAN_ANOMALY   = 239.6925

EPHEMERIS_TYPE = 0
CLASSIFICATION_TYPE = U
NORAD_CAT_ID   = 68178
ELEMENT_SET_NO = 999
REV_AT_EPOCH   = 411
BSTAR          = .10342259E-2
MEAN_MOTION_DOT = .209271E-2
MEAN_MOTION_DDOT = 0

CCSDS_OMM_VERS = 2.0
CREATION_DATE  = 
ORIGINATOR     = 

OBJECT_NAME    = STARLINK-37052
OBJECT_ID      = 2026-050N
CENTER_NAME    = EARTH
REF_FRAME      = TEME
TIME_SYSTEM    = UTC
MEAN_ELEMENT_THEORY = SGP/SGP4

EPOCH          = 2026-04-01T16:36:12.786624
MEAN_MOTION    = 15.80966451
ECCENTRICITY   = .00015759
INCLINATION    = 53.1586
RA_OF_ASC_NODE = 166.4593
ARG_OF_PERICENTER = 52.8836
MEAN_ANOMALY   = 307.2331

EPHEMERIS_TYPE = 0
CLASSIFICATION_TYPE = U
NORAD_CAT_ID   = 68179
ELEMENT_SET_NO = 999
REV_AT_EPOCH   = 411
BSTAR          = .10922788E-2
MEAN_MOTION_DOT = .221453E-2
MEAN_MOTION_DDOT = 0

CCSDS_OMM_VERS = 2.0
CREATION_DATE  = 
ORIGINATOR     = 

OBJECT_NAME    = STARLINK-37035
OBJECT_ID      = 2026-050P
CENTER_NAME    = EARTH
REF_FRAME      = TEME
TIME_SYSTEM    = UTC
MEAN_ELEMENT_THEORY = SGP/SGP4

EPOCH          = 2026-04-01T16:35:08.082528
MEAN_MOTION    = 15.80994732
ECCENTRICITY   = .00014757
INCLINATION    = 53.1583
RA_OF_ASC_NODE = 166.4540
ARG_OF_PERICENTER = 72.8155
MEAN_ANOMALY   = 287.3029

EPHEMERIS_TYPE = 0
CLASSIFICATION_TYPE = U
NORAD_CAT_ID   = 68180
ELEMENT_SET_NO = 999
REV_AT_EPOCH   = 411
BSTAR          = .15372874E-2
MEAN_MOTION_DOT = .315839E-2
MEAN_MOTION_DDOT = 0

CCSDS_OMM_VERS = 2.0
CREATION_DATE  = 
ORIGINATOR     = 

OBJECT_NAME    = STARLINK-37032
OBJECT_ID      = 2026-050Q
CENTER_NAME    = EARTH
REF_FRAME      = TEME
TIME_SYSTEM    = UTC
MEAN_ELEMENT_THEORY = SGP/SGP4

EPOCH          = 2026-04-01T16:34:03.123552
MEAN_MOTION    = 15.80962975
ECCENTRICITY   = .00008968
INCLINATION    = 53.1589
RA_OF_ASC_NODE = 166.4492
ARG_OF_PERICENTER = 79.2132
MEAN_ANOMALY   = 280.8991

EPHEMERIS_TYPE = 0
CLASSIFICATION_TYPE = U
NORAD_CAT_ID   = 68181
ELEMENT_SET_NO = 999
REV_AT_EPOCH   = 411
BSTAR          = .10069348E-2
MEAN_MOTION_DOT = .203637E-2
MEAN_MOTION_DDOT = 0

CCSDS_OMM_VERS = 2.0
CREATION_DATE  = 
ORIGINATOR     = 

OBJECT_NAME    = STARLINK-37082
OBJECT_ID      = 2026-050R
CENTER_NAME    = EARTH
REF_FRAME      = TEME
TIME_SYSTEM    = UTC
MEAN_ELEMENT_THEORY = SGP/SGP4

EPOCH          = 2026-04-01T16:32:58.493760
MEAN_MOTION    = 15.80982334
ECCENTRICITY   = .00017973
INCLINATION    = 53.1587
RA_OF_ASC_NODE = 166.4435
ARG_OF_PERICENTER = 64.5905
MEAN_ANOMALY   = 295.5304

EPHEMERIS_TYPE = 0
CLASSIFICATION_TYPE = U
NORAD_CAT_ID   = 68182
ELEMENT_SET_NO = 999
REV_AT_EPOCH   = 411
BSTAR          = .13181102E-2
MEAN_MOTION_DOT = .269075E-2
MEAN_MOTION_DDOT = 0

CCSDS_OMM_VERS = 2.0
CREATION_DATE  = 
ORIGINATOR     = 

OBJECT_NAME    = STARLINK-37102
OBJECT_ID      = 2026-050S
CENTER_NAME    = EARTH
REF_FRAME      = TEME
TIME_SYSTEM    = UTC
MEAN_ELEMENT_THEORY = SGP/SGP4

EPOCH          = 2026-04-01T16:31:53.367168
MEAN_MOTION    = 15.80994867
ECCENTRICITY   = .00012666
INCLINATION    = 53.1588
RA_OF_ASC_NODE = 166.4388
ARG_OF_PERICENTER = 57.3811
MEAN_ANOMALY   = 302.7334

EPHEMERIS_TYPE = 0
CLASSIFICATION_TYPE = U
NORAD_CAT_ID   = 68183
ELEMENT_SET_NO = 999
REV_AT_EPOCH   = 411
BSTAR          = .13827415E-2
MEAN_MOTION_DOT = .282925E-2
MEAN_MOTION_DDOT = 0

CCSDS_OMM_VERS = 2.0
CREATION_DATE  = 
ORIGINATOR     = 

OBJECT_NAME    = STARLINK-36964
OBJECT_ID      = 2026-050T
CENTER_NAME    = EARTH
REF_FRAME      = TEME
TIME_SYSTEM    = UTC
MEAN_ELEMENT_THEORY = SGP/SGP4

EPOCH          = 2026-04-01T16:30:48.796992
MEAN_MOTION    = 15.80945085
ECCENTRICITY   = .00010497
INCLINATION    = 53.1590
RA_OF_ASC_NODE = 166.4338
ARG_OF_PERICENTER = 104.8689
MEAN_ANOMALY   = 255.2450

EPHEMERIS_TYPE = 0
CLASSIFICATION_TYPE = U
NORAD_CAT_ID   = 68184
ELEMENT_SET_NO = 999
REV_AT_EPOCH   = 411
BSTAR          = .91082054E-3
MEAN_MOTION_DOT = .183548E-2
MEAN_MOTION_DDOT = 0

CCSDS_OMM_VERS = 2.0
CREATION_DATE  = 
ORIGINATOR     = 

OBJECT_NAME    = STARLINK-37061
OBJECT_ID      = 2026-050U
CENTER_NAME    = EARTH
REF_FRAME      = TEME
TIME_SYSTEM    = UTC
MEAN_ELEMENT_THEORY = SGP/SGP4

EPOCH          = 2026-04-01T16:29:43.895904
MEAN_MOTION    = 15.80958446
ECCENTRICITY   = .00011063
INCLINATION    = 53.1589
RA_OF_ASC_NODE = 166.4285
ARG_OF_PERICENTER = 44.3048
MEAN_ANOMALY   = 315.8063

EPHEMERIS_TYPE = 0
CLASSIFICATION_TYPE = U
NORAD_CAT_ID   = 68185
ELEMENT_SET_NO = 999
REV_AT_EPOCH   = 411
BSTAR          = .10651836E-2
MEAN_MOTION_DOT = .215716E-2
MEAN_MOTION_DDOT = 0

CCSDS_OMM_VERS = 2.0
CREATION_DATE  = 
ORIGINATOR     = 

OBJECT_NAME    = STARLINK-37079
OBJECT_ID      = 2026-050V
CENTER_NAME    = EARTH
REF_FRAME      = TEME
TIME_SYSTEM    = UTC
MEAN_ELEMENT_THEORY = SGP/SGP4

EPOCH          = 2026-04-01T16:28:39.298080
MEAN_MOTION    = 15.80951845
ECCENTRICITY   = .00017077
INCLINATION    = 53.1589
RA_OF_ASC_NODE = 166.4239
ARG_OF_PERICENTER = 50.9046
MEAN_ANOMALY   = 309.2129

EPHEMERIS_TYPE = 0
CLASSIFICATION_TYPE = U
NORAD_CAT_ID   = 68186
ELEMENT_SET_NO = 999
REV_AT_EPOCH   = 411
BSTAR          = .99356022E-3
MEAN_MOTION_DOT = .200753E-2
MEAN_MOTION_DDOT = 0

CCSDS_OMM_VERS = 2.0
CREATION_DATE  = 
ORIGINATOR     = 

OBJECT_NAME    = STARLINK-37006
OBJECT_ID      = 2026-050W
CENTER_NAME    = EARTH
REF_FRAME      = TEME
TIME_SYSTEM    = UTC
MEAN_ELEMENT_THEORY = SGP/SGP4

EPOCH          = 2026-04-01T16:27:34.416000
MEAN_MOTION    = 15.80953041
ECCENTRICITY   = .00013692
INCLINATION    = 53.1591
RA_OF_ASC_NODE = 166.4184
ARG_OF_PERICENTER = 69.2811
MEAN_ANOMALY   = 290.8358

EPHEMERIS_TYPE = 0
CLASSIFICATION_TYPE = U
NORAD_CAT_ID   = 68187
ELEMENT_SET_NO = 999
REV_AT_EPOCH   = 411
BSTAR          = .10283992E-2
MEAN_MOTION_DOT = .208003E-2
MEAN_MOTION_DDOT = 0

CCSDS_OMM_VERS = 2.0
CREATION_DATE  = 
ORIGINATOR     = 

OBJECT_NAME    = STARLINK-36340
OBJECT_ID      = 2026-050X
CENTER_NAME    = EARTH
REF_FRAME      = TEME
TIME_SYSTEM    = UTC
MEAN_ELEMENT_THEORY = SGP/SGP4

EPOCH          = 2026-04-01T16:26:29.418144
MEAN_MOTION    = 15.80985729
ECCENTRICITY   = .00011074
INCLINATION    = 53.1588
RA_OF_ASC_NODE = 166.4137
ARG_OF_PERICENTER = 51.7394
MEAN_ANOMALY   = 308.3729

EPHEMERIS_TYPE = 0
CLASSIFICATION_TYPE = U
NORAD_CAT_ID   = 68188
ELEMENT_SET_NO = 999
REV_AT_EPOCH   = 401
BSTAR          = .13801823E-2
MEAN_MOTION_DOT = .28226E-2
MEAN_MOTION_DDOT = 0

CCSDS_OMM_VERS = 2.0
CREATION_DATE  = 
ORIGINATOR     = 

OBJECT_NAME    = STARLINK-36305
OBJECT_ID      = 2026-050Y
CENTER_NAME    = EARTH
REF_FRAME      = TEME
TIME_SYSTEM    = UTC
MEAN_ELEMENT_THEORY = SGP/SGP4

EPOCH          = 2026-04-01T16:25:24.297600
MEAN_MOTION    = 15.81007983
ECCENTRICITY   = .00009676
INCLINATION    = 53.1587
RA_OF_ASC_NODE = 166.4088
ARG_OF_PERICENTER = 74.2909
MEAN_ANOMALY   = 285.8220

EPHEMERIS_TYPE = 0
CLASSIFICATION_TYPE = U
NORAD_CAT_ID   = 68189
ELEMENT_SET_NO = 999
REV_AT_EPOCH   = 401
BSTAR          = .14925855E-2
MEAN_MOTION_DOT = .30649E-2
MEAN_MOTION_DDOT = 0

CCSDS_OMM_VERS = 2.0
CREATION_DATE  = 
ORIGINATOR     = 

OBJECT_NAME    = STARLINK-37071
OBJECT_ID      = 2026-050Z
CENTER_NAME    = EARTH
REF_FRAME      = TEME
TIME_SYSTEM    = UTC
MEAN_ELEMENT_THEORY = SGP/SGP4

EPOCH          = 2026-04-01T16:23:15.010368
MEAN_MOTION    = 15.80982488
ECCENTRICITY   = .00013678
INCLINATION    = 53.1587
RA_OF_ASC_NODE = 166.3986
ARG_OF_PERICENTER = 128.7159
MEAN_ANOMALY   = 231.3986

EPHEMERIS_TYPE = 0
CLASSIFICATION_TYPE = U
NORAD_CAT_ID   = 68190
ELEMENT_SET_NO = 999
REV_AT_EPOCH   = 411
BSTAR          = .13314545E-2
MEAN_MOTION_DOT = .271897E-2
MEAN_MOTION_DDOT = 0

